$$SOE
2460147.500000000, A.D. 2023-Jul-22 00:00:00.0000, 2.750474127769686E+08, 1.060624671845024E+08, 1.214006786941112E+07,
2460154.500000000, A.D. 2023-Jul-29 00:00:00.0000, 2.719797662779999E+08, 1.191981310278793E+08, 1.401142548633216E+07,
2460161.500000000, A.D. 2023-Aug-05 00:00:00.0000, 2.684097442020852E+08, 1.321137825089378E+08, 1.585689818442181E+07,
2460168.500000000, A.D. 2023-Aug-12 00:00:00.0000, 2.643552606671280E+08, 1.447911289907053E+08, 1.767374387300057E+07,
2460175.500000000, A.D. 2023-Aug-19 00:00:00.0000, 2.598346683230013E+08, 1.572133232967579E+08, 1.945941884697393E+07,
2460182.500000000, A.D. 2023-Aug-26 00:00:00.0000, 2.548666406959887E+08, 1.693649279924169E+08, 2.121157394934009E+07,
2460189.500000000, A.D. 2023-Sep-02 00:00:00.0000, 2.494700645237738E+08, 1.812318719924619E+08, 2.292804956284440E+07,
2460196.500000000, A.D. 2023-Sep-09 00:00:00.0000, 2.436639421578540E+08, 1.928014009871000E+08, 2.460686963857075E+07,
2460203.500000000, A.D. 2023-Sep-16 00:00:00.0000, 2.374673040637021E+08, 2.040620230344983E+08, 2.624623494029520E+07,
2460210.500000000, A.D. 2023-Sep-23 00:00:00.0000, 2.308991315553967E+08, 2.150034508738284E+08, 2.784451567124170E+07,
2460217.500000000, A.D. 2023-Sep-30 00:00:00.0000, 2.239782890298828E+08, 2.256165432646117E+08, 2.940024377225083E+07,
2460224.500000000, A.D. 2023-Oct-07 00:00:00.0000, 2.167234628523440E+08, 2.358932457799881E+08, 3.091210520271321E+07,
2460231.500000000, A.D. 2023-Oct-14 00:00:00.0000, 2.091531073838497E+08, 2.458265285898357E+08, 3.237893196189234E+07,
2460238.500000000, A.D. 2023-Oct-21 00:00:00.0000, 2.012854008002220E+08, 2.554103235522708E+08, 3.379969379010208E+07,
2460245.500000000, A.D. 2023-Oct-28 00:00:00.0000, 1.931382086677281E+08, 2.646394634704713E+08, 3.517348995348370E+07,
2460252.500000000, A.D. 2023-Nov-04 00:00:00.0000, 1.847290534195005E+08, 2.735096232438812E+08, 3.649954124180786E+07,
2460259.500000000, A.D. 2023-Nov-11 00:00:00.0000, 1.760750893246935E+08, 2.820172627134929E+08, 3.777718217908886E+07,
2460266.500000000, A.D. 2023-Nov-18 00:00:00.0000, 1.671930826032476E+08, 2.901595714399148E+08, 3.900585347190657E+07,
2460273.500000000, A.D. 2023-Nov-25 00:00:00.0000, 1.580993962110871E+08, 2.979344156570243E+08, 4.018509472699812E+07,
2460280.500000000, A.D. 2023-Dec-02 00:00:00.0000, 1.488099787991211E+08, 3.053402875438748E+08, 4.131453746005777E+07,
2460287.500000000, A.D. 2023-Dec-09 00:00:00.0000, 1.393403574289174E+08, 3.123762568573305E+08, 4.239389840145700E+07,
2460294.500000000, A.D. 2023-Dec-16 00:00:00.0000, 1.297056338734257E+08, 3.190419249971852E+08, 4.342297308584374E+07,
2460301.500000000, A.D. 2023-Dec-23 00:00:00.0000, 1.199204844325158E+08, 3.253373822152171E+08, 4.440162975798556E+07,
2460308.500000000, A.D. 2023-Dec-30 00:00:00.0000, 1.099991615460802E+08, 3.312631690054412E+08, 4.532980380645429E+07,
2460315.500000000, A.D. 2024-Jan-06 00:00:00.0000, 9.995549508519292E+07, 3.368202392671306E+08, 4.620749269195709E+07,
2460322.500000000, A.D. 2024-Jan-13 00:00:00.0000, 8.980289617719208E+07, 3.420099233752288E+08, 4.703475092773660E+07,
2460329.500000000, A.D. 2024-Jan-20 00:00:00.0000, 7.955436451377770E+07, 3.468338941711589E+08, 4.781168524512663E+07,
2460336.500000000, A.D. 2024-Jan-27 00:00:00.0000, 6.922249686589088E+07, 3.512941364313961E+08, 4.853845017209826E+07,
2460343.500000000, A.D. 2024-Feb-03 00:00:00.0000, 5.881949615236323E+07, 3.553929187623824E+08, 4.921524397375712E+07,
2460350.500000000, A.D. 2024-Feb-10 00:00:00.0000, 4.835718114118302E+07, 3.591327675251247E+08, 4.984230489230631E+07,
2460357.500000000, A.D. 2024-Feb-17 00:00:00.0000, 3.784699674788855E+07, 3.625164426893748E+08, 5.041990766061462E+07,
2460364.500000000, A.D. 2024-Feb-24 00:00:00.0000, 2.730002481462797E+07, 3.655469155229858E+08, 5.094836027319862E+07,
2460371.500000000, A.D. 2024-Mar-02 00:00:00.0000, 1.672699526646280E+07, 3.682273479750541E+08, 5.142800099509230E+07,
2460378.500000000, A.D. 2024-Mar-09 00:00:00.0000, 6.138297668493808E+06, 3.705610735827149E+08, 5.185919557668144E+07,
2460385.500000000, A.D. 2024-Mar-16 00:00:00.0000, -4.456006520657116E+06, 3.725515799946733E+08, 5.224233464070274E+07,
2460392.500000000, A.D. 2024-Mar-23 00:00:00.0000, -1.504617118793776E+07, 3.742024941217101E+08, 5.257783132858647E+07,
2460399.500000000, A.D. 2024-Mar-30 00:00:00.0000, -2.562275460826344E+07, 3.755175697916782E+08, 5.286611939653386E+07,
2460406.500000000, A.D. 2024-Apr-06 00:00:00.0000, -3.617661009396484E+07, 3.765006744419713E+08, 5.310765144883294E+07,
2460413.500000000, A.D. 2024-Apr-13 00:00:00.0000, -4.669887475677123E+07, 3.771557755963688E+08, 5.330289703949386E+07,
2460420.500000000, A.D. 2024-Apr-20 00:00:00.0000, -5.718095737729933E+07, 3.774869297257468E+08, 5.345234093815160E+07,
2460427.500000000, A.D. 2024-Apr-27 00:00:00.0000, -6.761452693151383E+07, 3.774982728524437E+08, 5.355648164251055E+07,
2460434.500000000, A.D. 2024-May-04 00:00:00.0000, -7.799150171470505E+07, 3.771940121188974E+08, 5.361583006136003E+07,
2460441.500000000, A.D. 2024-May-11 00:00:00.0000, -8.830403884808087E+07, 3.765784181490160E+08, 5.363090832855307E+07,
2460448.500000000, A.D. 2024-May-18 00:00:00.0000, -9.854452410430017E+07, 3.756558181595148E+08, 5.360224873351440E+07,
2460455.500000000, A.D. 2024-May-25 00:00:00.0000, -1.087055620411791E+08, 3.744305897543908E+08, 5.353039275740737E+07,
2460462.500000000, A.D. 2024-Jun-01 00:00:00.0000, -1.187799663939513E+08, 3.729071552898383E+08, 5.341589019739421E+07,
2460469.500000000, A.D. 2024-Jun-08 00:00:00.0000, -1.287607504866863E+08, 3.710899767355936E+08, 5.325929834772664E+07,
2460476.500000000, A.D. 2024-Jun-15 00:00:00.0000, -1.386411172675540E+08, 3.689835515309346E+08, 5.306118123931925E+07,
2460483.500000000, A.D. 2024-Jun-22 00:00:00.0000, -1.484144499745792E+08, 3.665924105686195E+08, 5.282210912028220E+07,
2460490.500000000, A.D. 2024-Jun-29 00:00:00.0000, -1.580743055492576E+08, 3.639211164463705E+08, 5.254265821710849E+07,
2460497.500000000, A.D. 2024-Jul-06 00:00:00.0000, -1.676144081460073E+08, 3.609742594694872E+08, 5.222341032487407E+07,
2460504.500000000, A.D. 2024-Jul-13 00:00:00.0000, -1.770286407883839E+08, 3.577564541868676E+08, 5.186495227284499E+07,
2460511.500000000, A.D. 2024-Jul-20 00:00:00.0000, -1.863110371587478E+08, 3.542723375786932E+08, 5.146787553779027E+07,
2460518.500000000, A.D. 2024-Jul-27 00:00:00.0000, -1.954557741751472E+08, 3.505265679092997E+08, 5.103277598351406E+07,
2460525.500000000, A.D. 2024-Aug-03 00:00:00.0000, -2.044571650791267E+08, 3.465238238463895E+08, 5.056025366808234E+07,
2460532.500000000, A.D. 2024-Aug-10 00:00:00.0000, -2.133096528633727E+08, 3.422688038213866E+08, 5.005091270029387E+07,
2460539.500000000, A.D. 2024-Aug-17 00:00:00.0000, -2.220078039847969E+08, 3.377662256330105E+08, 4.950536113961768E+07,
2460546.500000000, A.D. 2024-Aug-24 00:00:00.0000, -2.305463023276687E+08, 3.330208262525754E+08, 4.892421093185964E+07,
2460553.500000000, A.D. 2024-Aug-31 00:00:00.0000, -2.389199432939537E+08, 3.280373617511308E+08, 4.830807786170986E+07,
2460560.500000000, A.D. 2024-Sep-07 00:00:00.0000, -2.471236276487508E+08, 3.228206074576949E+08, 4.765758149606241E+07,
2460567.500000000, A.D. 2024-Sep-14 00:00:00.0000, -2.551523550301175E+08, 3.173753593291002E+08, 4.697334518919212E+07,
2460574.500000000, A.D. 2024-Sep-21 00:00:00.0000, -2.630012191482015E+08, 3.117064369321141E+08, 4.625599636766614E+07,
2460581.500000000, A.D. 2024-Sep-28 00:00:00.0000, -2.706654051550890E+08, 3.058186848009900E+08, 4.550616687413177E+07,
2460588.500000000, A.D. 2024-Oct-05 00:00:00.0000, -2.781401855069421E+08, 2.997169721591173E+08, 4.472449303134669E+07,
2460595.500000000, A.D. 2024-Oct-12 00:00:00.0000, -2.854209146761050E+08, 2.934061939728963E+08, 4.391161570163485E+07,
2460602.500000000, A.D. 2024-Oct-19 00:00:00.0000, -2.925030244627889E+08, 2.868912730617564E+08, 4.306818047947954E+07,
2460609.500000000, A.D. 2024-Oct-26 00:00:00.0000, -2.993820199344770E+08, 2.801771624580393E+08, 4.219483795379394E+07,
2460616.500000000, A.D. 2024-Nov-02 00:00:00.0000, -3.060534757315977E+08, 2.732688478625951E+08, 4.129224400322132E+07,
2460623.500000000, A.D. 2024-Nov-09 00:00:00.0000, -3.125130326399568E+08, 2.661713502118879E+08, 4.036106011659853E+07,
2460630.500000000, A.D. 2024-Nov-16 00:00:00.0000, -3.187563944019539E+08, 2.588897283531448E+08, 3.940195373571862E+07,
2460637.500000000, A.D. 2024-Nov-23 00:00:00.0000, -3.247793247182047E+08, 2.514290817748601E+08, 3.841559861164679E+07,
2460644.500000000, A.D. 2024-Nov-30 00:00:00.0000, -3.305776442303938E+08, 2.437945533478902E+08, 3.740267515175785E+07,
2460651.500000000, A.D. 2024-Dec-07 00:00:00.0000, -3.361472270656828E+08, 2.359913324960192E+08, 3.636387075326793E+07,
2460658.500000000, A.D. 2024-Dec-14 00:00:00.0000, -3.414839976326167E+08, 2.280246600185942E+08, 3.529988028647189E+07,
2460665.500000000, A.D. 2024-Dec-21 00:00:00.0000, -3.465839299910219E+08, 2.198998333251382E+08, 3.421140683924124E+07,
2460672.500000000, A.D. 2024-Dec-28 00:00:00.0000, -3.514430478259577E+08, 2.116222091174119E+08, 3.309916229970139E+07,
2460679.500000000, A.D. 2025-Jan-04 00:00:00.0000, -3.560574224280087E+08, 2.031972058944243E+08, 3.196386773318490E+07,
2460686.500000000, A.D. 2025-Jan-11 00:00:00.0000, -3.604231705061367E+08, 1.946303079383127E+08, 3.080625385655957E+07,
2460693.500000000, A.D. 2025-Jan-18 00:00:00.0000, -3.645364527587684E+08, 1.859270698647484E+08, 2.962706161970931E+07,
2460700.500000000, A.D. 2025-Jan-25 00:00:00.0000, -3.683934729670323E+08, 1.770931212668769E+08, 2.842704283379178E+07,
2460707.500000000, A.D. 2025-Feb-01 00:00:00.0000, -3.719904774282628E+08, 1.681341714253168E+08, 2.720696082713314E+07,
2460714.500000000, A.D. 2025-Feb-08 00:00:00.0000, -3.753237546806185E+08, 1.590560141065904E+08, 2.596759112571167E+07,
$$EOE